[{"OBJECT_NAME":"STARLINK-3768","OBJECT_ID":"2022-041AS","EPOCH":"2026-03-09T09:51:57.857184","MEAN_MOTION":15.08840631,"ECCENTRICITY":0.00012203,"INCLINATION":53.2172,"RA_OF_ASC_NODE":100.3703,"ARG_OF_PERICENTER":96.9892,"MEAN_ANOMALY":263.1239,"EPHEMERIS_TYPE":0,"CLASSIFICATION_TYPE":"U","NORAD_CAT_ID":52301,"ELEMENT_SET_NO":999,"REV_AT_EPOCH":21446,"BSTAR":-1.5164675e-5,"MEAN_MOTION_DOT":-5.29e-6,"MEAN_MOTION_DDOT":0},{"OBJECT_NAME":"CZ-2D DEB","OBJECT_ID":"2010-027D","EPOCH":"2026-03-07T13:36:06.977952","MEAN_MOTION":15.23568143,"ECCENTRICITY":0.0065729,"INCLINATION":97.6621,"RA_OF_ASC_NODE":290.9585,"ARG_OF_PERICENTER":344.0278,"MEAN_ANOMALY":15.8885,"EPHEMERIS_TYPE":0,"CLASSIFICATION_TYPE":"U","NORAD_CAT_ID":38299,"ELEMENT_SET_NO":999,"REV_AT_EPOCH":83553,"BSTAR":0.0024156,"MEAN_MOTION_DOT":0.00061723,"MEAN_MOTION_DDOT":0}]
